     2.11           N: GPS NAV DATA                         RINEX VERSION / TYPE
teqc  2018Dec12     gpsops              20220315 01:04:09UTCPGM / RUN BY / DATE
Linux 2.6.32-573.12.1.x86_64|x86_64|gcc -static|Linux 64|=+ COMMENT
CHPI                                    MARKER NAME         COMMENT
41609M003                               MARKER NUMBER       COMMENT
4164613.9484 -4162456.9866 -2445028.7316                    COMMENT
                                                            COMMENT
This data is provided as a public service by NASA/JPL.      COMMENT
No warranty is expressed or implied regarding suitability   COMMENT
for use.  For further information, contact:                 COMMENT
Dave Stowers, NASA/JPL m/s 238-600                          COMMENT
4800 Oak Grove Drive, Pasadena CA 91109 USA                 COMMENT
                                                            END OF HEADER
 9 22  3 14 20  0  0.0-3.497540019453D-04 2.046363078989D-12 0.000000000000D+00
    1.300000000000D+01-5.846875000000D+01 4.294107438240D-09 2.525305655037D+00
   -2.933666110039D-06 2.180459676310D-03 1.073069870472D-05 5.153608846664D+03
    1.584000000000D+05 7.450580596924D-09-3.480618698768D-01 5.960464477539D-08
    9.545921016098D-01 1.695312500000D+02 1.875427855692D+00-7.757465986739D-09
    2.100087477073D-10 1.000000000000D+00 2.201000000000D+03 0.000000000000D+00
    2.000000000000D+00 0.000000000000D+00 1.396983861923D-09 1.300000000000D+01
    1.512180000000D+05 4.000000000000D+00
16 22  3 14 20  0  0.0-4.806425422430D-04-4.320099833421D-12 0.000000000000D+00
    5.100000000000D+01-1.553125000000D+01 4.541974905772D-09 2.999996204124D+00
   -9.369105100632D-07 1.279783877544D-02 7.517635822296D-06 5.153614852905D+03
    1.584000000000D+05-7.450580596924D-08 1.855227954537D+00-2.142041921616D-07
    9.696128777769D-01 2.398437500000D+02 7.178641521634D-01-7.757823144473D-09
   -5.010923010771D-10 1.000000000000D+00 2.201000000000D+03 0.000000000000D+00
    2.000000000000D+00 0.000000000000D+00-1.024454832077D-08 5.100000000000D+01
    1.512180000000D+05 4.000000000000D+00
22 22  3 14 20  0  0.0 2.275235019624D-04 5.798028723802D-12 0.000000000000D+00
    5.300000000000D+01-4.918750000000D+01 4.108385416458D-09 1.935776228370D+00
   -2.523884177208D-06 1.305864821188D-02 1.181848347187D-05 5.153672376633D+03
    1.584000000000D+05-1.303851604462D-08-2.465971897971D-01-3.054738044739D-07
    9.617651473674D-01 1.500312500000D+02-1.866947543413D+00-7.663176344911D-09
    3.953736117551D-10 1.000000000000D+00 2.201000000000D+03 0.000000000000D+00
    2.000000000000D+00 0.000000000000D+00-9.778887033463D-09 5.300000000000D+01
    1.512180000000D+05 4.000000000000D+00
17 22  3 14 20  0  0.0 5.872240290046D-04 5.002220859751D-12 0.000000000000D+00
    4.400000000000D+01 5.203125000000D+01 3.884090359382D-09 2.037576509172D+00
    2.641230821609D-06 1.352059980854D-02 1.028738915920D-05 5.153774015427D+03
    1.584000000000D+05 2.030283212662D-07 2.874174097482D+00-1.415610313416D-07
    9.798355883938D-01 1.839687500000D+02-1.493535774091D+00-7.456739174546D-09
   -2.035799084918D-10 1.000000000000D+00 2.201000000000D+03 0.000000000000D+00
    2.000000000000D+00 0.000000000000D+00-1.117587089539D-08 4.400000000000D+01
    1.512180000000D+05 4.000000000000D+00
 8 22  3 14 20  0  0.0-5.985004827380D-05-1.477928890381D-12 0.000000000000D+00
    7.700000000000D+01 6.440625000000D+01 4.261963242162D-09 2.118307878906D+00
    3.492459654808D-06 7.389778853394D-03 1.133792102337D-05 5.153740339279D+03
    1.584000000000D+05-1.136213541031D-07 2.791907387909D+00 1.695007085800D-07
    9.646437078653D-01 1.640625000000D+02 1.284396869428D-01-7.835326372794D-09
   -2.271523189487D-10 1.000000000000D+00 2.201000000000D+03 0.000000000000D+00
    2.800000000000D+00 0.000000000000D+00 5.122274160385D-09 7.700000000000D+01
    1.512180000000D+05 4.000000000000D+00
 7 22  3 14 19 59 44.0 3.159926272929D-04 1.932676241267D-12 0.000000000000D+00
    1.700000000000D+01 3.762500000000D+01 5.059139304888D-09-7.895241395123D-01
    2.283602952957D-06 1.568661641795D-02 6.385147571564D-06 5.153676898956D+03
    1.583840000000D+05 1.210719347000D-07 7.233721557653D-01 3.091990947723D-07
    9.510330998774D-01 2.509687500000D+02-2.285389666236D+00-8.391420964937D-09
    4.503759028213D-10 1.000000000000D+00 2.201000000000D+03 0.000000000000D+00
    2.000000000000D+00 0.000000000000D+00-1.117587089539D-08 1.700000000000D+01
    1.524420000000D+05 4.000000000000D+00
 6 22  3 14 20  0  0.0 2.313954755664D-04 1.273292582482D-11 0.000000000000D+00
    9.400000000000D+01 6.306250000000D+01 4.018381667440D-09 1.775398346525D-01
    3.241002559662D-06 2.700174809434D-03 3.948807716370D-06 5.153684654236D+03
    1.584000000000D+05-1.117587089539D-08-2.419713540313D+00-2.607703208923D-08
    9.865337753316D-01 3.186250000000D+02-9.199451076120D-01-8.032120284336D-09
    1.403629895391D-10 1.000000000000D+00 2.201000000000D+03 0.000000000000D+00
    2.000000000000D+00 0.000000000000D+00 3.725290298462D-09 9.400000000000D+01
    1.534380000000D+05 4.000000000000D+00
30 22  3 14 20  0  0.0-5.186912603676D-04-2.046363078989D-12 0.000000000000D+00
    3.700000000000D+01 3.681250000000D+01 5.345222649979D-09-7.356759083117D-01
    1.993030309677D-06 5.621788324788D-03 6.092712283134D-06 5.153561395645D+03
    1.584000000000D+05 8.568167686462D-08 7.360825922231D-01 3.725290298462D-08
    9.361827682958D-01 2.458125000000D+02-2.729305757123D+00-8.449994833345D-09
    4.657336853917D-10 1.000000000000D+00 2.201000000000D+03 0.000000000000D+00
    2.000000000000D+00 0.000000000000D+00 3.725290298462D-09 3.700000000000D+01
    1.557120000000D+05 4.000000000000D+00
 3 22  3 14 22  0  0.0-1.636561937630D-04-1.705302565824D-11 0.000000000000D+00
    9.600000000000D+01-1.027812500000D+02 4.420898433879D-09-2.003292295451D-01
   -5.330890417099D-06 3.946838667616D-03 4.068017005920D-06 5.153664772034D+03
    1.656000000000D+05 1.862645149231D-08-1.376397584278D+00 8.568167686462D-08
    9.725811122272D-01 3.052812500000D+02 9.447690997109D-01-8.279987751868D-09
   -3.342996392075D-10 1.000000000000D+00 2.201000000000D+03 0.000000000000D+00
    2.000000000000D+00 0.000000000000D+00 1.862645149231D-09 9.600000000000D+01
    1.584180000000D+05 4.000000000000D+00
 4 22  3 14 22  0  0.0-1.836065202951D-04 2.614797267597D-12 0.000000000000D+00
    2.110000000000D+02-5.459375000000D+01 4.154101606435D-09 2.687990892239D+00
   -2.788379788399D-06 1.736167236231D-03 1.162849366665D-05 5.153650321960D+03
    1.656000000000D+05-1.303851604462D-08-2.949606938854D-01 2.607703208923D-08
    9.616102989516D-01 1.554375000000D+02-3.022621130451D+00-7.741036730966D-09
    2.296524230881D-10 1.000000000000D+00 2.201000000000D+03 0.000000000000D+00
    2.000000000000D+00 0.000000000000D+00-4.190951585770D-09 9.790000000000D+02
    1.584180000000D+05 4.000000000000D+00
 7 22  3 14 21 59 44.0 3.160070627928D-04 1.932676241267D-12 0.000000000000D+00
    1.800000000000D+01 3.640625000000D+01 5.028423739747D-09 2.606460236731D-01
    2.015382051468D-06 1.568636682350D-02 6.670132279396D-06 5.153676338196D+03
    1.655840000000D+05-1.136213541031D-07 7.233114490537D-01 2.756714820862D-07
    9.510361090999D-01 2.484062500000D+02-2.285376726725D+00-8.430351157964D-09
    4.039453973758D-10 1.000000000000D+00 2.201000000000D+03 0.000000000000D+00
    2.000000000000D+00 0.000000000000D+00-1.117587089539D-08 1.800000000000D+01
    1.584180000000D+05 4.000000000000D+00
 9 22  3 14 22  0  0.0-3.497391007841D-04 2.046363078989D-12 0.000000000000D+00
    1.400000000000D+01-6.593750000000D+01 4.244819670920D-09-2.707753565216D+00
   -3.349035978317D-06 2.178051508963D-03 1.157820224762D-05 5.153613389969D+03
    1.656000000000D+05 4.097819328308D-08-3.481174446717D-01 3.725290298462D-09
    9.545933567935D-01 1.538750000000D+02 1.875518963304D+00-7.770680822904D-09
    1.525063525017D-10 1.000000000000D+00 2.201000000000D+03 0.000000000000D+00
    2.000000000000D+00 0.000000000000D+00 1.396983861923D-09 1.400000000000D+01
    1.584180000000D+05 4.000000000000D+00
16 22  3 14 22  0  0.0-4.806737415493D-04-4.320099833421D-12 0.000000000000D+00
    5.200000000000D+01-1.478125000000D+01 4.550189533658D-09-2.233000409087D+00
   -1.111999154091D-06 1.279799884651D-02 7.087364792824D-06 5.153614326477D+03
    1.656000000000D+05 2.253800630569D-07 1.855170371155D+00-1.303851604462D-07
    9.696096242471D-01 2.444062500000D+02 7.178930945347D-01-7.882471193708D-09
   -2.796545058755D-10 1.000000000000D+00 2.201000000000D+03 0.000000000000D+00
    2.000000000000D+00 0.000000000000D+00-1.024454832077D-08 5.200000000000D+01
    1.584180000000D+05 4.000000000000D+00
 6 22  3 14 22  0  0.0 2.314872108400D-04 1.273292582482D-11 0.000000000000D+00
    9.700000000000D+01 6.940625000000D+01 4.120171621686D-09 1.227743930223D+00
    3.455206751823D-06 2.699535340071D-03 3.729015588760D-06 5.153683624268D+03
    1.656000000000D+05-2.048909664154D-08-2.419771407500D+00-7.450580596924D-09
    9.865346911183D-01 3.172500000000D+02-9.199775010071D-01-8.048549540109D-09
    1.346484657919D-10 1.000000000000D+00 2.201000000000D+03 0.000000000000D+00
    2.000000000000D+00 0.000000000000D+00 3.725290298462D-09 9.700000000000D+01
    1.584180000000D+05 4.000000000000D+00
 1 22  3 14 22  0  0.0 4.088697023690D-04-9.094947017729D-12 0.000000000000D+00
    8.300000000000D+01 7.256250000000D+01 4.221604418198D-09 9.372720044325D-01
    3.969296813011D-06 1.153355592396D-02 3.829598426819D-06 5.153668174744D+03
    1.656000000000D+05-1.098960638046D-07-2.411500027719D+00 1.043081283569D-07
    9.871626677218D-01 3.204687500000D+02 8.840394393797D-01-8.295345534438D-09
    1.010756387775D-10 1.000000000000D+00 2.201000000000D+03 0.000000000000D+00
    2.000000000000D+00 0.000000000000D+00 5.122274160385D-09 8.300000000000D+01
    1.584180000000D+05 4.000000000000D+00
